start=new Date('2022-01-14T00:00:00.000Z').valueOf();
sats=[{"TIME_SYSTEM":"UTC","OBJECT_TYPE":"PAYLOAD","RCS_SIZE":"LARGE","CENTER_NAME":"EARTH","TLE_LINE1":"1 47772U 21017BC  22013.79469018 -.00000882  00000-0 -40294-4 0  9993","NORAD_CAT_ID":"47772","MEAN_ELEMENT_THEORY":"SGP4","EPOCH":"2022-01-13T19:04:21.231552","RA_OF_ASC_NODE":"186.7273","OBJECT_ID":"2021-017BC","MEAN_ANOMALY":"284.4358","LAUNCH_DATE":"2021-03-04","COUNTRY_CODE":"US","MEAN_MOTION":"15.06395281","ARG_OF_PERICENTER":"75.6903","SEMIMAJOR_AXIS":"6925.363","REV_AT_EPOCH":"4911","INCLINATION":"53.0544","BSTAR":"-0.00004029400000","REF_FRAME":"TEME","GP_ID":"193811795","APOAPSIS":"548.927","ECCENTRICITY":"0.00024530","FILE":"3272312","DECAY_DATE":null,"CLASSIFICATION_TYPE":"U","SITE":"AFETR","MEAN_MOTION_DOT":"-0.00000882","ELEMENT_SET_NO":"999","TLE_LINE2":"2 47772  53.0544 186.7273 0002453  75.6903 284.4358 15.06395281 49117","PERIAPSIS":"545.529","OBJECT_NAME":"STARLINK-2195","MEAN_MOTION_DDOT":"0.0000000000000","PERIOD":"95.592","EPHEMERIS_TYPE":"0"},{"EPHEMERIS_TYPE":"0","MEAN_MOTION_DDOT":"0.0000000000000","PERIOD":"95.592","OBJECT_NAME":"STARLINK-2196","PERIAPSIS":"545.618","TLE_LINE2":"2 47773  53.0545 186.7503 0002269  79.3704 280.7541 15.06407824 49109","ELEMENT_SET_NO":"999","MEAN_MOTION_DOT":"0.00001017","CLASSIFICATION_TYPE":"U","SITE":"AFETR","DECAY_DATE":null,"FILE":"3272312","ECCENTRICITY":"0.00022690","APOAPSIS":"548.761","GP_ID":"193810543","REF_FRAME":"TEME","BSTAR":"0.00008713300000","INCLINATION":"53.0545","REV_AT_EPOCH":"4910","ARG_OF_PERICENTER":"79.3704","SEMIMAJOR_AXIS":"6925.325","COUNTRY_CODE":"US","MEAN_MOTION":"15.06407824","LAUNCH_DATE":"2021-03-04","MEAN_ANOMALY":"280.7541","OBJECT_ID":"2021-017BD","RA_OF_ASC_NODE":"186.7503","EPOCH":"2022-01-13T18:59:02.594400","MEAN_ELEMENT_THEORY":"SGP4","TLE_LINE1":"1 47773U 21017BD  22013.79100225  .00001017  00000-0  87133-4 0  9998","CENTER_NAME":"EARTH","NORAD_CAT_ID":"47773","RCS_SIZE":"LARGE","TIME_SYSTEM":"UTC","OBJECT_TYPE":"PAYLOAD"},{"INCLINATION":"53.0545","BSTAR":"0.00006949200000","REF_FRAME":"TEME","GP_ID":"193810793","APOAPSIS":"548.844","FILE":"3272312","ECCENTRICITY":"0.00023590","DECAY_DATE":null,"CLASSIFICATION_TYPE":"U","SITE":"AFETR","MEAN_MOTION_DOT":"0.00000753","ELEMENT_SET_NO":"999","PERIAPSIS":"545.577","TLE_LINE2":"2 47774  53.0545 186.7638 0002359  75.6847 284.4404 15.06401090 49115","OBJECT_NAME":"STARLINK-2197","MEAN_MOTION_DDOT":"0.0000000000000","PERIOD":"95.592","EPHEMERIS_TYPE":"0","OBJECT_TYPE":"PAYLOAD","TIME_SYSTEM":"UTC","RCS_SIZE":"LARGE","TLE_LINE1":"1 47774U 21017BE  22013.78733480  .00000753  00000-0  69492-4 0  9997","NORAD_CAT_ID":"47774","CENTER_NAME":"EARTH","MEAN_ELEMENT_THEORY":"SGP4","EPOCH":"2022-01-13T18:53:45.726720","RA_OF_ASC_NODE":"186.7638","OBJECT_ID":"2021-017BE","MEAN_ANOMALY":"284.4404","LAUNCH_DATE":"2021-03-04","COUNTRY_CODE":"US","MEAN_MOTION":"15.06401090","ARG_OF_PERICENTER":"75.6847","SEMIMAJOR_AXIS":"6925.345","REV_AT_EPOCH":"4911"},{"PERIOD":"95.592","MEAN_MOTION_DDOT":"0.0000000000000","EPHEMERIS_TYPE":"0","ELEMENT_SET_NO":"999","MEAN_MOTION_DOT":"0.00000953","CLASSIFICATION_TYPE":"U","SITE":"AFETR","DECAY_DATE":null,"OBJECT_NAME":"STARLINK-2198","TLE_LINE2":"2 47775  53.0529 186.7263 0002203  78.0716 282.0520 15.06402459 49160","PERIAPSIS":"545.680","APOAPSIS":"548.732","GP_ID":"193812045","ECCENTRICITY":"0.00022030","FILE":"3272312","BSTAR":"0.00008291100000","INCLINATION":"53.0529","REF_FRAME":"TEME","REV_AT_EPOCH":"4916","LAUNCH_DATE":"2021-03-04","SEMIMAJOR_AXIS":"6925.341","ARG_OF_PERICENTER":"78.0716","MEAN_MOTION":"15.06402459","COUNTRY_CODE":"US","OBJECT_ID":"2021-017BF","MEAN_ANOMALY":"282.0520","RCS_SIZE":"LARGE","OBJECT_TYPE":"PAYLOAD","TIME_SYSTEM":"UTC","RA_OF_ASC_NODE":"186.7263","EPOCH":"2022-01-13T19:09:38.826720","MEAN_ELEMENT_THEORY":"SGP4","NORAD_CAT_ID":"47775","TLE_LINE1":"1 47775U 21017BF  22013.79836605  .00000953  00000-0  82911-4 0  9995","CENTER_NAME":"EARTH"},{"OBJECT_NAME":"STARLINK-2209","TLE_LINE2":"2 47776  53.0536 176.9000 0002108  75.2176 284.9047 15.06401200 49261","PERIAPSIS":"545.750","MEAN_MOTION_DOT":"0.00000993","ELEMENT_SET_NO":"999","DECAY_DATE":null,"SITE":"AFETR","CLASSIFICATION_TYPE":"U","EPHEMERIS_TYPE":"0","MEAN_MOTION_DDOT":"0.0000000000000","PERIOD":"95.592","REF_FRAME":"TEME","BSTAR":"0.00008557600000","INCLINATION":"53.0536","FILE":"3272312","ECCENTRICITY":"0.00021080","APOAPSIS":"548.670","GP_ID":"193812296","MEAN_MOTION":"15.06401200","COUNTRY_CODE":"US","ARG_OF_PERICENTER":"75.2176","SEMIMAJOR_AXIS":"6925.345","LAUNCH_DATE":"2021-03-04","REV_AT_EPOCH":"4926","RA_OF_ASC_NODE":"176.9000","CENTER_NAME":"EARTH","TLE_LINE1":"1 47776U 21017BG  22013.75875229  .00000993  00000-0  85576-4 0  9991","NORAD_CAT_ID":"47776","EPOCH":"2022-01-13T18:12:36.197856","MEAN_ELEMENT_THEORY":"SGP4","RCS_SIZE":"LARGE","TIME_SYSTEM":"UTC","OBJECT_TYPE":"PAYLOAD","MEAN_ANOMALY":"284.9047","OBJECT_ID":"2021-017BG"},{"MEAN_MOTION_DDOT":"0.0000000000000","PERIOD":"95.593","EPHEMERIS_TYPE":"0","SITE":"AFETR","CLASSIFICATION_TYPE":"U","DECAY_DATE":null,"ELEMENT_SET_NO":"999","MEAN_MOTION_DOT":"0.00001072","TLE_LINE2":"2 47777  53.0540 176.8913 0002054  72.0178 288.1034 15.06389829 49260","PERIAPSIS":"545.822","OBJECT_NAME":"STARLINK-2210","GP_ID":"193811044","APOAPSIS":"548.667","ECCENTRICITY":"0.00020540","FILE":"3272312","INCLINATION":"53.0540","BSTAR":"0.00009087000000","REF_FRAME":"TEME","REV_AT_EPOCH":"4926","LAUNCH_DATE":"2021-03-04","SEMIMAJOR_AXIS":"6925.380","ARG_OF_PERICENTER":"72.0178","COUNTRY_CODE":"US","MEAN_MOTION":"15.06389829","OBJECT_ID":"2021-017BH","MEAN_ANOMALY":"288.1034","OBJECT_TYPE":"PAYLOAD","TIME_SYSTEM":"UTC","RCS_SIZE":"LARGE","EPOCH":"2022-01-13T18:17:54.716640","MEAN_ELEMENT_THEORY":"SGP4","CENTER_NAME":"EARTH","TLE_LINE1":"1 47777U 21017BH  22013.76243885  .00001072  00000-0  90870-4 0  9992","NORAD_CAT_ID":"47777","RA_OF_ASC_NODE":"176.8913"},{"LAUNCH_DATE":"2021-03-04","MEAN_MOTION":"15.06395091","COUNTRY_CODE":"US","SEMIMAJOR_AXIS":"6925.364","ARG_OF_PERICENTER":"86.6288","REV_AT_EPOCH":"4925","TIME_SYSTEM":"UTC","OBJECT_TYPE":"PAYLOAD","RCS_SIZE":"LARGE","CENTER_NAME":"EARTH","TLE_LINE1":"1 47778U 21017BJ  22013.72926121 -.00000243  00000-0  26171-5 0  9994","NORAD_CAT_ID":"47778","EPOCH":"2022-01-13T17:30:08.168544","MEAN_ELEMENT_THEORY":"SGP4","RA_OF_ASC_NODE":"177.0619","OBJECT_ID":"2021-017BJ","MEAN_ANOMALY":"273.4918","DECAY_DATE":null,"CLASSIFICATION_TYPE":"U","SITE":"AFETR","MEAN_MOTION_DOT":"-0.00000243","ELEMENT_SET_NO":"999","PERIAPSIS":"545.911","TLE_LINE2":"2 47778  53.0469 177.0619 0001903  86.6288 273.4918 15.06395091 49257","OBJECT_NAME":"STARLINK-2211","MEAN_MOTION_DDOT":"0.0000000000000","PERIOD":"95.592","EPHEMERIS_TYPE":"0","INCLINATION":"53.0469","BSTAR":"0.00000261710000","REF_FRAME":"TEME","APOAPSIS":"548.547","GP_ID":"193811294","FILE":"3272312","ECCENTRICITY":"0.00019030"},{"MEAN_ANOMALY":"244.9369","OBJECT_ID":"2021-017BK","TLE_LINE1":"1 47779U 21017BK  22013.71092571  .00004019  00000-0  23707-3 0  9991","NORAD_CAT_ID":"47779","CENTER_NAME":"EARTH","MEAN_ELEMENT_THEORY":"SGP4","EPOCH":"2022-01-13T17:03:43.981344","RA_OF_ASC_NODE":"174.6730","OBJECT_TYPE":"PAYLOAD","TIME_SYSTEM":"UTC","RCS_SIZE":"LARGE","REV_AT_EPOCH":"4929","COUNTRY_CODE":"US","MEAN_MOTION":"15.13711082","SEMIMAJOR_AXIS":"6903.031","ARG_OF_PERICENTER":"115.1846","LAUNCH_DATE":"2021-03-04","FILE":"3272312","ECCENTRICITY":"0.00021540","APOAPSIS":"526.383","GP_ID":"193811545","REF_FRAME":"TEME","INCLINATION":"53.0534","BSTAR":"0.00023707000000","EPHEMERIS_TYPE":"0","MEAN_MOTION_DDOT":"0.0000000000000","PERIOD":"95.130","PERIAPSIS":"523.409","TLE_LINE2":"2 47779  53.0534 174.6730 0002154 115.1846 244.9369 15.13711082 49292","OBJECT_NAME":"STARLINK-2212","DECAY_DATE":null,"CLASSIFICATION_TYPE":"U","SITE":"AFETR","MEAN_MOTION_DOT":"0.00004019","ELEMENT_SET_NO":"999"},{"INCLINATION":"53.0533","BSTAR":"-0.00000792880000","REF_FRAME":"TEME","APOAPSIS":"548.706","GP_ID":"193811796","FILE":"3272312","ECCENTRICITY":"0.00021450","DECAY_DATE":null,"SITE":"AFETR","CLASSIFICATION_TYPE":"U","MEAN_MOTION_DOT":"-0.00000400","ELEMENT_SET_NO":"999","PERIAPSIS":"545.735","TLE_LINE2":"2 47780  53.0533 177.0025 0002145  73.5938 286.5287 15.06397644 49293","OBJECT_NAME":"STARLINK-2213","MEAN_MOTION_DDOT":"0.0000000000000","PERIOD":"95.592","EPHEMERIS_TYPE":"0","TIME_SYSTEM":"UTC","OBJECT_TYPE":"PAYLOAD","RCS_SIZE":"LARGE","TLE_LINE1":"1 47780U 21017BL  22013.75506366 -.00000400  00000-0 -79288-5 0  9998","CENTER_NAME":"EARTH","NORAD_CAT_ID":"47780","EPOCH":"2022-01-13T18:07:17.500224","MEAN_ELEMENT_THEORY":"SGP4","RA_OF_ASC_NODE":"177.0025","OBJECT_ID":"2021-017BL","MEAN_ANOMALY":"286.5287","LAUNCH_DATE":"2021-03-04","MEAN_MOTION":"15.06397644","COUNTRY_CODE":"US","ARG_OF_PERICENTER":"73.5938","SEMIMAJOR_AXIS":"6925.356","REV_AT_EPOCH":"4929"},{"COUNTRY_CODE":"US","MEAN_MOTION":"15.06397623","ARG_OF_PERICENTER":"81.8915","SEMIMAJOR_AXIS":"6925.356","LAUNCH_DATE":"2021-03-04","REV_AT_EPOCH":"4924","RA_OF_ASC_NODE":"177.0731","NORAD_CAT_ID":"47781","TLE_LINE1":"1 47781U 21017BM  22013.72190016  .00001041  00000-0  88810-4 0  9997","CENTER_NAME":"EARTH","EPOCH":"2022-01-13T17:19:32.173824","MEAN_ELEMENT_THEORY":"SGP4","RCS_SIZE":"LARGE","OBJECT_TYPE":"PAYLOAD","TIME_SYSTEM":"UTC","MEAN_ANOMALY":"278.2301","OBJECT_ID":"2021-017BM","OBJECT_NAME":"STARLINK-2223","PERIAPSIS":"545.835","TLE_LINE2":"2 47781  53.0553 177.0731 0002001  81.8915 278.2301 15.06397623 49245","MEAN_MOTION_DOT":"0.00001041","ELEMENT_SET_NO":"999","DECAY_DATE":null,"CLASSIFICATION_TYPE":"U","SITE":"AFETR","EPHEMERIS_TYPE":"0","PERIOD":"95.592","MEAN_MOTION_DDOT":"0.0000000000000","REF_FRAME":"TEME","BSTAR":"0.00008881000000","INCLINATION":"53.0553","ECCENTRICITY":"0.00020010","FILE":"3272312","GP_ID":"193810544","APOAPSIS":"548.607"}];
